ONEWEB-0401             
1 50481U 21132N   23288.43140473  .00000018  00000+0  13998-4 0  9998
2 50481  87.9272 169.5310 0002107  78.9011 281.2358 13.18688548 94291
ONEWEB-0402             
1 50482U 21132P   23287.63893459  .00000037  00000+0  59953-4 0  9991
2 50482  87.9202 169.6939 0002266  65.5890 294.5478 13.18682419 92936
ONEWEB-0403             
1 50483U 21132Q   23288.42087648  .00000045  00000+0  82141-4 0  9999
2 50483  87.9253 169.5344 0001861  83.6172 276.5172 13.18685001 94276
ONEWEB-0404             
1 50484U 21132R   23288.49569571  .00000444  00000+0  12177-2 0  9990
2 50484  87.8987 214.8845 0001804  94.7102 265.4232 13.11415982 89082
ONEWEB-0405             
1 50485U 21132S   23288.37718107  .00000113  00000+0  25291-3 0  9994
2 50485  87.9277 169.5380 0002198  79.1466 280.9913 13.19203364 94679
ONEWEB-0406             
1 50486U 21132T   23288.19745261 -.00000034  00000+0 -11979-3 0  9998
2 50486  87.9274 169.5772 0001632  95.1899 264.9420 13.18686946 94284
ONEWEB-0407             
1 50487U 21132U   23288.19114255  .00000085  00000+0  18246-3 0  9990
2 50487  87.9273 169.5863 0001884  79.5323 280.6021 13.18686038 94220
ONEWEB-0409             
1 50488U 21132V   23288.49404525  .00000382  00000+0  10429-2 0  9990
2 50488  87.8986 214.9006 0001473  96.2975 263.8321 13.11415360 88981
